NORAD_CAT_ID,OBJECT_NAME,OBJECT_TYPE,EPOCH,MEAN_MOTION,ECCENTRICITY,INCLINATION,RA_OF_ASC_NODE,ARG_OF_PERICENTER,MEAN_ANOMALY,BSTAR,MEAN_MOTION_DOT,MEAN_MOTION_DDOT,TLE_LINE0,TLE_LINE1,TLE_LINE2,SEMIMAJOR_AXIS,PERIOD,APOGEE,PERIGEE,DECAYED
53137.0,STARLINK-4145,PAYLOAD,2023-07-01 09:31:38,15.08834561,9.15e-05,53.2179,263.8047,85.7803,274.3294,5.4045e-05,5.72e-06,0.0,0 STARLINK-4145,1 53137U 22083F   23182.39697080  .00000572  00000-0  54045-4 0  9998,2 53137  53.2179 263.8047 0000915  85.7803 274.3294 15.08834561 53554,6917.897,95.438,540.395,539.129,0.0
53137.0,STARLINK-4145,PAYLOAD,2023-07-02 10:57:48,15.08840677,9.51e-05,53.2174,259.0464,84.3822,275.7279,8.7665e-05,1.108e-05,0.0,0 STARLINK-4145,1 53137U 22083F   23183.45680779  .00001108  00000-0  87665-4 0  9993,2 53137  53.2174 259.0464 0000951  84.3822 275.7279 15.08840677 53716,6917.878,95.438,540.401,539.085,0.0
53137.0,STARLINK-4145,PAYLOAD,2023-07-03 12:23:58,15.0884497,9.6e-05,53.2175,254.2883,84.0529,276.0572,0.00010552,1.392e-05,0.0,0 STARLINK-4145,1 53137U 22083F   23184.51664454  .00001392  00000-0  10552-3 0  9998,2 53137  53.2175 254.2883 0000960  84.0529 276.0572 15.08844970 53877,6917.865,95.437,540.394,539.066,0.0
53137.0,STARLINK-4145,PAYLOAD,2023-07-04 10:39:22,15.08840482,0.0001022,53.2172,250.1259,81.8717,278.2391,1.1785e-05,-1e-06,0.0,0 STARLINK-4145,1 53137U 22083F   23185.44400918 -.00000100  00000-0  11785-4 0  9991,2 53137  53.2172 250.1259 0001022  81.8717 278.2391 15.08840482 54014,6917.879,95.438,540.451,539.037,0.0
53137.0,STARLINK-4145,PAYLOAD,2023-07-06 10:20:56,15.08840854,9.73e-05,53.2166,241.2036,92.0282,268.0822,6.9359e-05,8.16e-06,0.0,0 STARLINK-4145,1 53137U 22083F   23187.43120537  .00000816  00000-0  69359-4 0  9991,2 53137  53.2166 241.2036 0000973  92.0282 268.0822 15.08840854 54318,6917.878,95.438,540.416,539.07,0.0
53137.0,STARLINK-4145,PAYLOAD,2023-07-07 13:22:29,15.08844428,0.0001005,53.2172,236.1498,89.7722,270.3386,7.438e-05,8.96e-06,0.0,0 STARLINK-4145,1 53137U 22083F   23188.55728344  .00000896  00000-0  74380-4 0  9993,2 53137  53.2172 236.1498 0001005  89.7722 270.3386 15.08844428 54489,6917.867,95.437,540.427,539.037,0.0
53137.0,STARLINK-4145,PAYLOAD,2023-07-08 02:05:34,15.0883719,0.0001022,53.2171,233.7706,88.2164,271.8945,3.9518e-05,3.41e-06,0.0,0 STARLINK-4145,1 53137U 22083F   23189.08720953  .00000341  00000-0  39518-4 0  9999,2 53137  53.2171 233.7706 0001022  88.2164 271.8945 15.08837190 54560,6917.889,95.438,540.461,539.047,0.0
53137.0,STARLINK-4145,PAYLOAD,2023-07-09 03:31:45,15.08832917,0.0001046,53.2174,229.012,103.6208,256.4901,-1.8919e-05,-5.89e-06,0.0,0 STARLINK-4145,1 53137U 22083F   23190.14705596 -.00000589  00000-0 -18919-4 0  9992,2 53137  53.2174 229.0120 0001046 103.6208 256.4901 15.08832917 54729,6917.902,95.438,540.491,539.043,0.0
53137.0,STARLINK-4145,PAYLOAD,2023-07-10 11:19:28,15.08838479,9.15e-05,53.2164,223.0648,92.8949,267.2148,6.2495e-05,7.07e-06,0.0,0 STARLINK-4145,1 53137U 22083F   23191.47185419  .00000707  00000-0  62495-4 0  9993,2 53137  53.2164 223.0648 0000915  92.8949 267.2148 15.08838479 54926,6917.885,95.438,540.383,539.117,0.0
53137.0,STARLINK-4145,PAYLOAD,2023-07-11 19:07:11,15.08840042,9.44e-05,53.2163,217.1176,82.6646,277.4453,8.8684e-05,1.124e-05,0.0,0 STARLINK-4145,1 53137U 22083F   23192.79665587  .00001124  00000-0  88684-4 0  9990,2 53137  53.2163 217.1176 0000944  82.6646 277.4453 15.08840042 55122,6917.88,95.438,540.398,539.092,0.0
53137.0,STARLINK-4145,PAYLOAD,2023-07-13 07:41:03,15.08841916,9.68e-05,53.2162,210.2775,85.4319,274.6783,5.5096e-05,5.89e-06,0.0,0 STARLINK-4145,1 53137U 22083F   23194.32017402  .00000589  00000-0  55096-4 0  9993,2 53137  53.2162 210.2775 0000968  85.4319 274.6783 15.08841916 55355,6917.875,95.437,540.409,539.07,0.0
53137.0,STARLINK-4145,PAYLOAD,2023-07-14 07:31:50,15.08839184,0.0001041,53.2164,205.8169,86.9826,273.1286,-9.5551e-06,-4.4e-06,0.0,0 STARLINK-4145,1 53137U 22083F   23195.31377710 -.00000440  00000-0 -95551-5 0  9993,2 53137  53.2164 205.8169 0001041  86.9826 273.1286 15.08839184 55509,6917.883,95.438,540.468,539.028,0.0
53137.0,STARLINK-4145,PAYLOAD,2023-07-15 10:33:23,15.0884134,0.0001006,53.2166,200.7625,82.8698,277.2408,5.6024e-05,6.04e-06,0.0,0 STARLINK-4145,1 53137U 22083F   23196.43985376  .00000604  00000-0  56024-4 0  9991,2 53137  53.2166 200.7625 0001006  82.8698 277.2408 15.08841340 55671,6917.876,95.437,540.437,539.045,0.0
53137.0,STARLINK-4145,PAYLOAD,2023-07-15 16:54:56,15.08836818,9.9e-05,53.2163,199.5727,80.6393,279.4711,1.0436e-05,-1.22e-06,0.0,0 STARLINK-4145,1 53137U 22083F   23196.70481822 -.00000122  00000-0  10436-4 0  9991,2 53137  53.2163 199.5727 0000990  80.6393 279.4711 15.08836818 55715,6917.89,95.438,540.44,539.07,0.0
53137.0,STARLINK-4145,PAYLOAD,2023-07-17 10:14:57,15.08841816,9.93e-05,53.2162,191.8414,79.3133,280.7971,4.8235e-05,4.8e-06,0.0,0 STARLINK-4145,1 53137U 22083F   23198.42705804  .00000480  00000-0  48235-4 0  9995,2 53137  53.2162 191.8414 0000993  79.3133 280.7971 15.08841816 55977,6917.875,95.437,540.427,539.053,0.0
53137.0,STARLINK-4145,PAYLOAD,2023-07-18 08:30:22,15.08836807,9.63e-05,53.2161,187.678,81.4105,278.6996,4.8289e-05,4.81e-06,0.0,0 STARLINK-4145,1 53137U 22083F   23199.35442249  .00000481  00000-0  48289-4 0  9999,2 53137  53.2161 187.6780 0000963  81.4105 278.6996 15.08836807 56119,6917.89,95.438,540.421,539.089,0.0
53137.0,STARLINK-4145,PAYLOAD,2023-07-19 08:21:08,15.08843881,0.0001251,53.2179,183.2175,83.4529,276.6605,6.5979e-05,7.62e-06,0.0,0 STARLINK-4145,1 53137U 22083F   23200.34801852  .00000762  00000-0  65979-4 0  9997,2 53137  53.2179 183.2175 0001251  83.4529 276.6605 15.08843881 56262,6917.869,95.437,540.599,538.868,0.0
53137.0,STARLINK-4145,PAYLOAD,2023-07-21 01:41:10,15.08837231,0.0001365,53.2177,175.4828,113.3351,246.7785,1.6356e-05,-2.8e-07,0.0,0 STARLINK-4145,1 53137U 22083F   23202.07026321 -.00000028  00000-0  16356-4 0  9990,2 53137  53.2177 175.4828 0001365 113.3351 246.7785 15.08837231 56528,6917.889,95.438,540.698,538.81,0.0
53137.0,STARLINK-4145,PAYLOAD,2023-07-24 07:35:04,15.08853334,0.0001106,53.217,160.9172,94.6692,265.4426,-0.00025556,-4.354e-05,0.0,0 STARLINK-4145,1 53137U 22083F   23205.31602800 -.00004354  00000-0 -25556-3 0  9990,2 53137  53.2170 160.9172 0001106  94.6692 265.4426 15.08853334 56380,6917.84,95.437,540.47,538.94,0.0
53137.0,STARLINK-4145,PAYLOAD,2023-07-25 05:50:28,15.08840734,0.0001183,53.2172,156.7539,98.5523,261.5603,2.5797e-05,1.23e-06,0.0,0 STARLINK-4145,1 53137U 22083F   23206.24339022  .00000123  00000-0  25797-4 0  9992,2 53137  53.2172 156.7539 0001183  98.5523 261.5603 15.08840734 56523,6917.878,95.438,540.562,538.925,0.0
53137.0,STARLINK-4145,PAYLOAD,2023-07-26 05:41:15,15.08841073,0.0001461,53.2163,152.2938,79.0693,281.0463,9.6272e-05,1.245e-05,0.0,0 STARLINK-4145,1 53137U 22083F   23207.23699064  .00001245  00000-0  96272-4 0  9999,2 53137  53.2163 152.2938 0001461  79.0693 281.0463 15.08841073 56672,6917.877,95.437,540.753,538.731,0.0
53137.0,STARLINK-4145,PAYLOAD,2023-07-27 02:21:16,15.08848045,0.0001308,53.2169,148.4272,95.1698,264.9443,9.7193e-05,1.26e-05,0.0,0 STARLINK-4145,1 53137U 22083F   23208.09810405  .00001260  00000-0  97193-4 0  9998,2 53137  53.2169 148.4272 0001308  95.1698 264.9443 15.08848045 57439,6917.856,95.437,540.626,538.816,0.0
53137.0,STARLINK-4145,PAYLOAD,2023-07-27 13:28:58,15.08841688,0.0001,53.2179,146.3461,80.567,279.5435,5.8432e-05,6.42e-06,0.0,0 STARLINK-4145,1 53137U 22083F   23208.56178783  .00000642  00000-0  58432-4 0  9992,2 53137  53.2179 146.3461 0001000  80.5670 279.5435 15.08841688 56870,6917.875,95.437,540.432,539.048,0.0
53137.0,STARLINK-4145,PAYLOAD,2023-07-27 15:04:21,15.08838138,0.0001248,53.2167,146.0479,83.4423,276.6711,3.2884e-05,2.35e-06,0.0,0 STARLINK-4145,1 53137U 22083F   23208.62803159  .00000235  00000-0  32884-4 0  9992,2 53137  53.2167 146.0479 0001248  83.4423 276.6711 15.08838138 57518,6917.886,95.438,540.614,538.888,0.0
53137.0,STARLINK-4145,PAYLOAD,2023-07-28 00:36:41,15.08831932,0.0001123,53.2172,144.2629,94.0721,266.0399,-0.00010412,-1.944e-05,0.0,0 STARLINK-4145,1 53137U 22083F   23209.02548055 -.00001944  00000-0 -10412-3 0  9990,2 53137  53.2172 144.2629 0001123  94.0721 266.0399 15.08831932 57578,6917.905,95.438,540.547,538.993,0.0
53137.0,STARLINK-4145,PAYLOAD,2023-07-28 05:22:50,15.08834034,0.0001196,53.2165,143.371,95.8074,264.3054,-7.4753e-05,-1.477e-05,0.0,0 STARLINK-4145,1 53137U 22083F   23209.22419935 -.00001477  00000-0 -74753-4 0  9996,2 53137  53.2165 143.3710 0001196  95.8074 264.3054 15.08834034 56979,6917.899,95.438,540.591,538.936,0.0
53137.0,STARLINK-4145,PAYLOAD,2023-07-29 02:02:50,15.08851723,0.0001284,53.2171,139.5061,88.3363,271.7776,4.1133e-05,3.67e-06,0.0,0 STARLINK-4145,1 53137U 22083F   23210.08530447  .00000367  00000-0  41133-4 0  9995,2 53137  53.2171 139.5061 0001284  88.3363 271.7776 15.08851723 57730,6917.845,95.437,540.598,538.821,0.0
53137.0,STARLINK-4145,PAYLOAD,2023-07-30 01:53:37,15.08839621,0.0001147,53.217,135.0458,93.9921,266.1202,0.00020977,3.052e-05,0.0,0 STARLINK-4145,1 53137U 22083F   23211.07890991  .00003052  00000-0  20977-3 0  9994,2 53137  53.2170 135.0458 0001147  93.9921 266.1202 15.08839621 57881,6917.882,95.438,540.54,538.953,0.0
53137.0,STARLINK-4145,PAYLOAD,2023-07-30 19:22:52,15.08842648,0.0001293,53.2169,131.7754,75.4584,284.6551,-4.3948e-05,-9.87e-06,0.0,0 STARLINK-4145,1 53137U 22083F   23211.80755697 -.00000987  00000-0 -43948-4 0  9998,2 53137  53.2169 131.7754 0001293  75.4584 284.6551 15.08842648 57990,6917.872,95.437,540.632,538.843,0.0
53137.0,STARLINK-4145,PAYLOAD,2023-07-31 03:19:48,15.0884832,0.0001161,53.2169,130.2889,91.95,268.1625,1.0782e-05,-1.16e-06,0.0,0 STARLINK-4145,1 53137U 22083F   23212.13875072 -.00000116  00000-0  10782-4 0  9998,2 53137  53.2169 130.2889 0001161  91.9500 268.1625 15.08848320 58047,6917.855,95.437,540.523,538.917,0.0
